{
  "type": "FeatureCollection",
  "features": [
    {
      "type": "Feature",
      "properties": {},
      "geometry": {
        "coordinates": [
          [
            [
              -58.47708000540051,
              -34.49294680408949
            ],
            [
              -58.47938522812974,
              -34.47556130244602
            ],
            [
              -58.493533014449866,
              -34.460276174597254
            ],
            [
              -58.519440389512894,
              -34.47311282115442
            ],
            [
              -58.49914424249445,
              -34.5035084701856
            ],
            [
              -58.47708000540051,
              -34.49294680408949
            ]
          ]
        ],
        "type": "Polygon"
      }
    }
  ]
}