{
    "type": "FeatureCollection",
    "features": [
      {
        "type": "Feature",
        "properties": {},
        "geometry": {
          "coordinates": [
           [
              [
                -58.502805,
                -34.4854672
              ],
              [
                -58.4899368,
                -34.4792024
              ],
              [
                -58.4870611,
                -34.4830007
              ],
              [
                -58.4816312,
                -34.4853439
              ],
              [
                -58.4815221,
                -34.490631
              ],
              [
                -58.4844339,
                -34.4918058
              ],
              [
                -58.4975852,
                -34.4977543
              ],
              [
                -58.4981372,
                -34.4942986
              ],
              [
                -58.4986968,
                -34.492823
              ]
            ]
          ],
          "type": "Polygon"
        }
      }
    ]
  }
