{
    "type": "FeatureCollection",
    "features": [
      {
        "type": "Feature",
        "properties": {},
        "geometry": {
          "coordinates": [
            [
              [
                -58.5125898,
                -34.4742323
              ],
              [
                -58.5124415,
                -34.4742102
              ],
              [
                -58.511799,
                -34.4738866
              ],
              [
                -58.5124064,
                -34.4741724
              ],
              [
                -58.510434,
                -34.4732172
              ],
              [
                -58.5104092,
                -34.4731383	
              ],
              [
                -58.5074333,
                -34.4716483
              ],
              [
                -58.5040282,
                -34.4699732
              ],
              [
                -58.4997104,
                -34.4672585
              ],
              [
                -58.4996064,
                -34.4670612	
              ],
              [
                -58.4975461,
                -34.4638604
              ],
              [
                -58.4974456,
                -34.4639423
              ],
              [
                -58.4816953,
                -34.4805722
              ],
              [
                -58.4829197,
                -34.4808711
              ],
              [
                -58.4873387,
                -34.4830556
              ],
              [
                -58.4873052,
                -34.4830092
              ],
              [
                -58.4899561,
                -34.47932
              ],
              [
                -58.5027567,
                -34.485511
              ],
              [
                -58.5061133,
                -34.4812483
              ],
              [
                -58.5065596,
                -34.4806482
              ],
              [
                -58.5064829,
                -34.4801271
              ],
              [
                -58.5071508,
                -34.4799944
              ]
            ]
          ],
          "type": "Polygon"
        }
      }
    ]
  }
