{
    "type": "FeatureCollection",
    "features": [
      {
        "type": "Feature",
        "properties": {},
        "geometry": {
          "coordinates": [
            [
              [
                -58.4976432,
                -34.4977962
              ],
              [
                -58.5043083,
                -34.5008398
              ],
              [
                -58.5043039,
                -34.5008452
              ],
              [
                -58.506213,
                -34.5017125
              ],
              [
                -58.5133652,
                -34.5049795
              ],
              [
                -58.5250246,
                -34.5102361
              ],
              [
                -58.5307018,
                -34.5073812
              ],
              [
                -58.5338675,
                -34.5058299
              ],
              [
                -58.5339932,
                -34.5056208
              ],
              [
                -58.5343545,
                -34.5056071
              ],
              [
                -58.53423,
                -34.5053978
              ],
              [
                -58.5343653,
                -34.5051767
              ],

              [
                -58.5351072,
                -34.5050652
              ],
              [
                -58.5363339,
                -34.5044798
              ],
              [
                -58.5391146,
                -34.5033218
              ],
              [
                -58.5443843,
                -34.5008847
              ],
              [
                -58.5447864,
                -34.5006302
              ],
              [
                -58.5508094,
                -34.4976351
              ],
              [
                -58.5520641,
                -34.4968389
              ],
              [
                -58.5529823,
                -34.4958554
              ],
              [
                -58.5528641,
                -34.4957766
              ],
              [
                -58.5522575,
                -34.495211
              ],
              [
                -58.5509309,
                -34.4941196
              ],
              [
                -58.5508656,
                -34.4940718
              ],
              [
                -58.5507472,
                -34.494004
              ],
              [
                -58.5492707,
                -34.4932492
              ],
              [
                -58.5471006,
                -34.4921956
              ],
              [
                -58.5436138,
                -34.4976734
              ],
              [
                -58.5434342,
                -34.4981062
              ],
              [
                -58.5435821,
                -34.4982363
              ],
              [
                -58.5436389,
                -34.4982534
              ],
              [
                -58.5437662,
                -34.4983394
              ],
              [
                -58.5436895,
                -34.4984202
              ],
              [
                -58.5428108,
                -34.4991107
              ],
              [
                -58.5424559,
                -34.4989467
              ],
              [
                -58.5420883,
                -34.4987505
              ],
              [
                -58.5394594,
                -34.4973978
              ],
              [
                -58.5357428,
                -34.4954799
              ],
              [
                -58.5246145,
                -34.4897676
              ],
              [
                -58.524339,
                -34.4895963
              ],
              [
                -58.5206209,
                -34.4875919
              ],
              [
                -58.5157167,
                -34.4967067
              ],
              [
                -58.5181844,
                -34.4977955
              ],
              [
                -58.5193183,
                -34.4983946
              ],
              [
                -58.5171507,
                -34.5025776
              ],
              [
                -58.5157034,
                -34.5060619
              ]
            ]
          ],
          "type": "Polygon"
        }
      }
    ]
  }