{
    "type": "FeatureCollection",
    "features": [
      {
        "type": "Feature",
        "properties": {},
        "geometry": {
          "coordinates": [
            [
              [
                -58.5205087,
                -34.4875905
              ],
              [
                -58.5073191,
                -34.4805331
              ],
              [
                -58.5066232,
                -34.4806785
              ],
              [
                -58.5057834,
                -34.4818516
              ],      
              [
                -58.5028413,
                -34.485517
              ], 
              [
                -58.502109,
                -34.4866902
              ],
              [
                -58.498779,
                -34.4928728
	         ],
              [
                -58.4981894,
                -34.4943148
              ],
              [
                -58.4976287,
                -34.4977962
              ],
              [
                -58.5157964,
                -34.5060689
              ],
              [
                -58.5178079,
                -34.5015261
              ],
              [
                -58.5195397,
                -34.4983498
              ],
              [
                -58.5146413,
                -34.4961232
              ]
            ]
          ],
          "type": "Polygon"
        }
      }
    ]
  }