{
    "type": "FeatureCollection",
    "features": [
      {
        "type": "Feature",
        "properties": {},
        "geometry": {
          "coordinates": [
            [
              [
                -58.49583862176405,
                -34.501093163460055
              ],
              [
                -58.4906783460486,
                -34.49699406453254
              ],
              [
                -58.50547663460527,
                -34.47762408107045
              ],
              [
                -58.54035360739073,
                -34.489769155546675
              ],
              [
                -58.54259184088825,
                -34.48633580870144
              ],
              [
                -58.54756570638473,
                -34.48859045764527
              ],
              [
                -58.5564571700489,
                -34.49294600136728
              ],
              [
                -58.5563324701624,
                -34.4980188446998
              ],
              [
                -58.5296604140661,
                -34.51538597369175
              ],
              [
                -58.49583862176405,
                -34.501093163460055
              ]
            ]
          ],
          "type": "Polygon"
        }
      }
    ]
  }